0 THORAD AGENA D DEB
1 04718U 70025CC  13281.43978859  .00000738  00000-0  51472-3 0  8755
2 04718 100.0405 220.5512 0101858 012.5890 108.6856 13.99874807205183
0 THORAD AGENA D DEB
1 04718U 70025CC  13282.56949146  .00000711  00000-0  49745-3 0  8769
2 04718 100.0406 221.7900 0101821 009.5907 041.8628 13.99878451205345
0 THORAD AGENA D DEB
1 04718U 70025CC  13283.65539472  .00000751  00000-0  52347-3 0  8774
2 04718 100.0408 222.9807 0101780 006.7051 114.3250 13.99881080205494
0 THORAD AGENA D DEB
1 04718U 70025CC  13286.08688169  .00000730  00000-0  50987-3 0  8799
2 04718 100.0415 225.6468 0101684 000.2284 127.9716 13.99885223205833
0 THORAD AGENA D DEB
1 04718U 70025CC  13287.08740133  .00000797  00000-0  55353-3 0  8807
2 04718 100.0417 226.7439 0101639 357.5653 130.1696 13.99886729205973
0 THORAD AGENA D DEB
1 04718U 70025CC  13288.08838791  .00001043  00000-0  71384-3 0  8814
2 04718 100.0420 227.8415 0101591 354.8911 134.7357 13.99889819206111
0 THORAD AGENA D DEB
1 04718U 70025CC  13289.08861362  .00000876  00000-0  60480-3 0  8824
2 04718 100.0422 228.9383 0101543 352.2381 135.4583 13.99892298206258
0 THORAD AGENA D DEB
1 04718U 70025CC  13290.08921818  .00000853  00000-0  59028-3 0  8831
2 04718 100.0423 230.0356 0101496 349.5684 138.1153 13.99894031206390
0 THORAD AGENA D DEB
1 04718U 70025CC  13291.08982765  .00000858  00000-0  59355-3 0  8849
2 04718 100.0425 231.1330 0101451 346.8958 140.8073 13.99896096206531
0 THORAD AGENA D DEB
1 04718U 70025CC  13292.30993299  .00000904  00000-0  62358-3 0  8859
2 04718 100.0425 232.4712 0101384 343.6430 169.6788 13.99898360206701
0 THORAD AGENA D DEB
1 04718U 70025CC  13293.37507581  .00000978  00000-0  67140-3 0  8868
2 04718 100.0426 233.6394 0101333 340.7910 137.6192 13.99900944206858
0 THORAD AGENA D DEB
1 04718U 70025CC  13294.37638450  .00000942  00000-0  64816-3 0  8878
2 04718 100.0425 234.7377 0101283 338.1180 143.8572 13.99903328206999
0 THORAD AGENA D DEB
1 04718U 70025CC  13295.37678455  .00000986  00000-0  67711-3 0  8884
2 04718 100.0425 235.8350 0101235 335.4358 145.5365 13.99905633207133
